[ {"name": "STARLINK-30079", "line1": "1 56706U 23067U   26146.20193225  .00001534  00000+0  66857-4 0  9993", "line2": "2 56706  43.0020 203.6055 0001513 265.6405  94.4274 15.26749437167433"}, {"name": "STARLINK-30070", "line1": "1 56707U 23067V   26146.20115674  .00002695  00000+0  10742-3 0  9996", "line2": "2 56707  43.0021 193.3827 0001589 257.1350 102.9324 15.27581099167558"}, {"name": "STARLINK-30071", "line1": "1 56708U 23067W   26146.21094489  .00003200  00000+0  12578-3 0  9990", "line2": "2 56708  43.0013 196.8591 0002024 269.0181  91.0439 15.27581369167516"}, {"name": "STARLINK-30085", "line1": "1 56709U 23067X   26146.17417500  .00000819  00000+0  39301-4 0  9996", "line2": "2 56709  43.0023 193.1793 0001065 276.9716  83.1014 15.27576267167294"}, {"name": "STARLINK-6197", "line1": "1 56767U 23078A   26146.29825327  .00036983  00000+0  17223-2 0  9993", "line2": "2 56767  69.9878 147.7785 0003231 351.6582   8.4533 15.19737998164337"}, {"name": "STARLINK-6198", "line1": "1 56768U 23078B   26146.24141211  .00001379  00000+0  12332-3 0  9990", "line2": "2 56768  69.9989 128.7856 0003361 266.0621  94.0154 14.98334933164794"}, {"name": "STARLINK-6342", "line1": "1 56770U 23078D   26146.30879597  .00000180  00000+0  22881-4 0  9995", "line2": "2 56770  69.9983 168.7534 0003736 267.8398  92.2333 14.98329665163811"}, {"name": "STARLINK-6275", "line1": "1 56772U 23078F   26146.30445573  .00000213  00000+0  25621-4 0  9992", "line2": "2 56772  69.9986 168.7368 0003876 267.4626  92.6089 14.98330207163812"}, {"name": "STARLINK-6296", "line1": "1 56773U 23078G   26146.27456545 -.00000037  00000+0  47129-5 0  9993", "line2": "2 56773  69.9995 109.0094 0003581 266.1437  93.9312 14.98330185165287"}, {"name": "STARLINK-6190", "line1": "1 56774U 23078H   26146.25856825  .00000129  00000+0  18597-4 0  9994", "line2": "2 56774  69.9985 168.9757 0003595 268.0245  92.0502 14.98328982163809"}, {"name": "STARLINK-6292", "line1": "1 56775U 23078J   26146.27038915  .00000365  00000+0  38390-4 0  9994", "line2": "2 56775  69.9995 108.9948 0003457 266.3240  93.7524 14.98333433165283"}, {"name": "STARLINK-6274", "line1": "1 56776U 23078K   26146.29566392  .00000678  00000+0  64595-4 0  9995", "line2": "2 56776  69.9988 128.9669 0003588 267.0988  92.9760 14.98333759164799"}, {"name": "STARLINK-5582", "line1": "1 56777U 23078L   26146.25416763 -.00001559  00000+0 -12289-3 0  9991", "line2": "2 56777  69.9992 149.0899 0003417 268.0787  91.9980 14.98332322164296"}, {"name": "STARLINK-6304", "line1": "1 56778U 23078M   26146.29148475  .00000662  00000+0  63275-4 0  9992", "line2": "2 56778  69.9988 128.9518 0003563 267.4295  92.6456 14.98332983164799"}, {"name": "STARLINK-6231", "line1": "1 56779U 23078N   26146.26644678  .00001041  00000+0  95015-4 0  9995", "line2": "2 56779  69.9988 128.8634 0003527 267.6960  92.3796 14.98325033164780"}, {"name": "STARLINK-5963", "line1": "1 56780U 23078P   26146.25013490 -.00001876  00000+0 -14943-3 0  9996", "line2": "2 56780  69.9983 148.6957 0004281 267.5452  92.5217 14.98335475164307"}, {"name": "STARLINK-5989", "line1": "1 56781U 23078Q   26146.30006394  .00007421  00000+0  62949-3 0  9997", "line2": "2 56781  69.9986 148.8473 0003389 269.5980  90.4791 14.98301469164302"}, {"name": "STARLINK-6352", "line1": "1 56782U 23078R   26146.28731287  .00000154  00000+0  20694-4 0  9999", "line2": "2 56782  69.9987 128.9368 0003132 269.3265  90.7535 14.98331629164799"}, {"name": "STARLINK-6357", "line1": "1 56783U 23078S   26146.27896124  .00000320  00000+0  34617-4 0  9996", "line2": "2 56783  69.9986 128.9069 0003769 263.2993  96.7737 14.98332566164795"}, {"name": "STARLINK-6354", "line1": "1 56784U 23078T   26146.28313608  .00000621  00000+0  59865-4 0  9995", "line2": "2 56784  69.9986 128.9215 0003689 265.9316  94.1422 14.98331883164792"}, {"name": "STARLINK-5931", "line1": "1 56785U 23078U   26146.24164424 -.00000346  00000+0 -21219-4 0  9990", "line2": "2 56785  69.9986 149.0454 0003854 266.7530  93.3188 14.98334263164989"}, {"name": "STARLINK-6341", "line1": "1 56786U 23078V   26146.27478942  .00000240  00000+0  27928-4 0  9991", "line2": "2 56786  69.9988 128.8929 0003629 266.4553  93.6191 14.98330591164792"}, {"name": "STARLINK-6326", "line1": "1 56787U 23078W   26146.24975184  .00000729  00000+0  68866-4 0  9997", "line2": "2 56787  69.9988 128.8079 0003380 265.8017  94.2756 14.98323971164799"}, {"name": "STARLINK-6336", "line1": "1 56788U 23078X   26146.27062199  .00000602  00000+0  58281-4 0  9994", "line2": "2 56788  69.9987 128.8781 0003193 266.6868  93.3926 14.98313836164792"}, {"name": "STARLINK-6345", "line1": "1 56790U 23078Z   26146.25369717 -.00000406  00000+0 -26226-4 0  9999", "line2": "2 56790  69.9995 108.9364 0003162 266.8029  93.2768 14.98335164165283"}, {"name": "STARLINK-5977", "line1": "1 56791U 23078AA  26146.27084082 -.00000056  00000+0  31451-5 0  9998", "line2": "2 56791  69.9985 148.7485 0003347 268.9424  91.1352 14.98329433164306"}, {"name": "STARLINK-6046", "line1": "1 56792U 23078AB  26146.24582132 -.00000892  00000+0 -66982-4 0  9990", "line2": "2 56792  69.9987 149.0609 0003527 268.9909  91.0846 14.98333266164293"}, {"name": "STARLINK-6052", "line1": "1 56793U 23078AC  26146.28753394  .00000332  00000+0  35658-4 0  9998", "line2": "2 56793  69.9985 148.8042 0003801 266.4574  93.6150 14.98332839164309"}, {"name": "STARLINK-6060", "line1": "1 56794U 23078AD  26146.26226793  .00001140  00000+0  10333-3 0  9995", "line2": "2 56794  69.9988 128.8487 0003841 268.1984  91.8735 14.98332821164795"}, {"name": "STARLINK-6061", "line1": "1 56795U 23078AE  26146.30414295  .00000901  00000+0  83332-4 0  9991", "line2": "2 56795  69.9987 128.5923 0003745 265.3516  94.7216 14.98334542164800"}, {"name": "STARLINK-6049", "line1": "1 56796U 23078AF  26146.30422914  .00000932  00000+0  85855-4 0  9995", "line2": "2 56796  69.9985 148.8625 0003653 266.0970  93.9772 14.98334334164305"}, {"name": "STARLINK-6058", "line1": "1 56797U 23078AG  26146.24999594 -.00000247  00000+0 -12920-4 0  9996", "line2": "2 56797  69.9992 149.0685 0003784 265.6572  94.4155 14.98334403164297"}, {"name": "STARLINK-5953", "line1": "1 56799U 23078AJ  26146.29170696 -.00000949  00000+0 -71756-4 0  9998", "line2": "2 56799  69.9985 148.8147 0003610 266.0686  94.0060 14.98339319164304"}, {"name": "STARLINK-6036", "line1": "1 56800U 23078AK  26146.29588147  .00000531  00000+0  52254-4 0  9992", "line2": "2 56800  69.9983 148.8325 0003486 267.8651  92.2109 14.98334514164301"}, {"name": "STARLINK-6087", "line1": "1 56801U 23078AL  26146.24557082  .00000623  00000+0  60014-4 0  9997", "line2": "2 56801  69.9988 128.7896 0003684 268.7114  91.3623 14.98332904164796"}, {"name": "STARLINK-6029", "line1": "1 56803U 23078AN  26146.28338105  .00000741  00000+0  69942-4 0  9996", "line2": "2 56803  69.9984 148.7890 0003716 267.5939  92.4795 14.98326456164302"}, {"name": "STARLINK-6069", "line1": "1 56804U 23078AP  26146.25391664  .00000463  00000+0  46596-4 0  9994", "line2": "2 56804  69.9988 128.8195 0003342 268.2965  91.7811 14.98332200165469"}, {"name": "STARLINK-6064", "line1": "1 56805U 23078AQ  26146.25809498  .00000677  00000+0  64483-4 0  9996", "line2": "2 56805  69.9989 128.8323 0003708 265.3794  94.6942 14.98336726164797"}, {"name": "STARLINK-6072", "line1": "1 56806U 23078AR  26146.28706817  .00000662  00000+0  63301-4 0  9993", "line2": "2 56806  69.9992 108.6510 0003194 264.8830  95.1964 14.98336864165266"}, {"name": "STARLINK-6073", "line1": "1 56807U 23078AS  26146.30398152  .00005128  00000+0  43718-3 0  9997", "line2": "2 56807  69.9998 128.5908 0003844 263.7282  96.3439 14.98338021164790"}, {"name": "STARLINK-6042", "line1": "1 56808U 23078AT  26146.24291993  .00000229  00000+0  26995-4 0  9992", "line2": "2 56808  70.0001  79.0006 0002795 265.8052  94.2788 14.98332044166032"}, {"name": "STARLINK-6040", "line1": "1 56809U 23078AU  26146.26248589 -.00001883  00000+0 -14999-3 0  9997", "line2": "2 56809  69.9984 148.7156 0003739 265.3983  94.6749 14.98342896164302"}, {"name": "STARLINK-6031", "line1": "1 56810U 23078AV  26146.27919400 -.00000514  00000+0 -35261-4 0  9993", "line2": "2 56810  69.9985 148.7744 0003726 266.8983  93.1749 14.98324066164303"}, {"name": "STARLINK-6063", "line1": "1 56811U 23078AW  26146.03426735  .07085661  44052-5  24829-3 0  9991", "line2": "2 56811  69.9827  75.6033 0014180 251.3950 108.5743 16.43000737166087"}, {"name": "STARLINK-6065", "line1": "1 56812U 23078AX  26146.24573445  .00000753  00000+0  70893-4 0  9990", "line2": "2 56812  69.9988 128.7955 0003258 267.7962  92.2824 14.98333081164791"}, {"name": "STARLINK-6056", "line1": "1 56813U 23078AY  26146.25848035  .00000652  00000+0  62450-4 0  9990", "line2": "2 56813  69.9983 148.7013 0003604 266.5535  93.5212 14.98331217164303"}, {"name": "STARLINK-6059", "line1": "1 56814U 23078AZ  26146.26666636  .00000056  00000+0  12476-4 0  9998", "line2": "2 56814  69.9982 148.7294 0003617 262.0111  98.0637 14.98328485164303"}, {"name": "STARLINK-6067", "line1": "1 56816U 23078BB  26146.29980750  .00000372  00000+0  39015-4 0  9998", "line2": "2 56816  69.9988 128.5765 0003751 262.7418  97.3314 14.98331266164806"}, {"name": "STARLINK-6028", "line1": "1 56818U 23078BD  26146.25833232  .00004149  00000+0  35520-3 0  9990", "line2": "2 56818  69.9999 148.7000 0003244 269.0622  91.0166 14.98337408164990"}, {"name": "STARLINK-30119", "line1": "1 56823U 23079A   26146.09460017  .00000505  00000+0  27860-4 0  9997", "line2": "2 56823  43.0010  30.1413 0001196 258.4621 101.6096 15.27572639165159"}, {"name": "STARLINK-30120", "line1": "1 56824U 23079B   26146.04334530  .00001709  00000+0  71600-4 0  9991", "line2": "2 56824  43.0019  30.6197 0001035 279.0668  81.0066 15.27586458165034"}, {"name": "STARLINK-30084", "line1": "1 56825U 23079C   26146.04833866 -.00000670  00000+0 -14812-4 0  9998", "line2": "2 56825  43.0047  29.8023 0001259 276.6778  83.3930 15.27577121164724"}]